[{"OBJECT_NAME":"KORSAT-2","OBJECT_ID":"2024-247A","EPOCH":"2026-03-09T09:51:24.769440","MEAN_MOTION":14.99271316,"ECCENTRICITY":0.00097734,"INCLINATION":45.4085,"RA_OF_ASC_NODE":225.0391,"ARG_OF_PERICENTER":57.7708,"MEAN_ANOMALY":302.4117,"EPHEMERIS_TYPE":0,"CLASSIFICATION_TYPE":"U","NORAD_CAT_ID":62377,"ELEMENT_SET_NO":999,"REV_AT_EPOCH":6659,"BSTAR":0.00043497982,"MEAN_MOTION_DOT":5.163e-5,"MEAN_MOTION_DDOT":0},{"OBJECT_NAME":"SENTINEL-1B","OBJECT_ID":"2016-025A","EPOCH":"2026-03-09T22:22:55.750080","MEAN_MOTION":14.98768491,"ECCENTRICITY":0.00163778,"INCLINATION":98.1047,"RA_OF_ASC_NODE":125.8491,"ARG_OF_PERICENTER":100.1359,"MEAN_ANOMALY":260.1711,"EPHEMERIS_TYPE":0,"CLASSIFICATION_TYPE":"U","NORAD_CAT_ID":41456,"ELEMENT_SET_NO":999,"REV_AT_EPOCH":52891,"BSTAR":0.00015358389,"MEAN_MOTION_DOT":1.79e-5,"MEAN_MOTION_DDOT":0}]
